{
  "type": "FeatureCollection",
  "features": [
    {
      "type": "Feature",
      "geometry": {
        "type": "Point",
        "coordinates": [
          3.501846,
          47.40324
        ]
      },
      "properties": {
        "name": "Entrée",
        "scan3d": "https://sketchfab.com/3d-models/gouffre-de-ouagne-entree-a9149e67fe514e44b11a309c6b5afa58",
        "image": "https://media.sketchfab.com/models/a9149e67fe514e44b11a309c6b5afa58/thumbnails/ffa6cab721d341fe844ff4f99029ff72/fe33fda778e24ded942cdb09f1e44f1b.jpeg"
      }
    },
    {
      "type": "Feature",
      "geometry": {
        "type": "Point",
        "coordinates": [
          3.518448,
          47.396379
        ]
      },
      "properties": {
        "name": "Doline",
        "scan3d": "https://sketchfab.com/3d-models/gouffre-de-ouagne-doline-5dd84ce8814940e2bc35c724d900e63e",
        "image": "https://media.sketchfab.com/models/5dd84ce8814940e2bc35c724d900e63e/thumbnails/506777d5aa39464d8576f3d7abd37caa/962d88602ae1433fae2bd151f2a9cffb.jpeg"
      }
    },
    {
      "type": "Feature",
      "geometry": {
        "type": "Point",
        "coordinates": [
          3.510804,
          47.399408
        ]
      },
      "properties": {
        "name": "Section 1",
        "scan3d": "https://sketchfab.com/3d-models/gouffre-de-ouagne-section-1-9a216f1d6b674927aa1421b168aa820e",
        "image": "https://media.sketchfab.com/models/9a216f1d6b674927aa1421b168aa820e/thumbnails/10c4fce8210143d5bf45d613ee5e1e03/e95ba3c537dc415fafdb6e2df508ed6b.jpeg"
      }
    },
    {
      "type": "Feature",
      "geometry": {
        "type": "Point",
        "coordinates": [
          3.507908,
          47.399869
        ]
      },
      "properties": {
        "name": "Section 2",
        "scan3d": "https://sketchfab.com/3d-models/ouagne-section-2-c8066ef173624d5eb1e923bf284a59b4",
        "image": "https://media.sketchfab.com/models/c8066ef173624d5eb1e923bf284a59b4/thumbnails/ab67c82cfd30438ba77168ec62edc639/1c9457d580594c33a8a5561b4b956ea0.jpeg"
      }
    },
    {
      "type": "Feature",
      "geometry": {
        "type": "Point",
        "coordinates": [
          3.506351,
          47.401335
        ]
      },
      "properties": {
        "name": "Section 3",
        "scan3d": "https://sketchfab.com/3d-models/gouffre-de-ouagne-section-3-47263eb709ed43d68c58b0c3697a23dc",
        "image": "https://media.sketchfab.com/models/47263eb709ed43d68c58b0c3697a23dc/thumbnails/60b70bfd9f76470db6c5907454f7b6ae/8d975dac8a214344850e64dad0f7dea0.jpeg"
      }
    }
  ]
}