<?xml version="1.0" encoding="UTF-8"?>
<kml xmlns="http://earth.google.com/kml/2.1">
<Document>
  <name>gouffre de Ouagne</name>
  <open>0</open>
  <Style id = "VTStyle01">
    <PolyStyle>
      <color>ff0000ff</color>
    </PolyStyle>
    <LineStyle>
      <width>1</width>
      <color>ff0000ff</color>
    </LineStyle>
  </Style>
  <Placemark>
    <name>gouffre de Ouagne</name>
    <styleUrl>#VTStyle01</styleUrl>
    <MultiGeometry>
      <Polygon>
        <altitudeMode>clampToGround</altitudeMode>
        <extrude>1</extrude>
        <tessellate>1</tessellate>
        <outerBoundaryIs>
          <LinearRing>
            <coordinates>
              3.5003449,47.4034014
              3.5003875,47.4033900
              3.5003896,47.4033941
              3.5003472,47.4034054
              3.5003449,47.4034014
            </coordinates>
          </LinearRing>
        </outerBoundaryIs>
      </Polygon>
      <Polygon>
        <altitudeMode>clampToGround</altitudeMode>
        <extrude>1</extrude>
        <tessellate>1</tessellate>
        <outerBoundaryIs>
          <LinearRing>
            <coordinates>
              3.5003875,47.4033900
              3.5004694,47.4033730
              3.5004713,47.4033771
              3.5003896,47.4033941
              3.5003875,47.4033900
            </coordinates>
          </LinearRing>
        </outerBoundaryIs>
      </Polygon>
      <Polygon>
        <altitudeMode>clampToGround</altitudeMode>
        <extrude>1</extrude>
        <tessellate>1</tessellate>
        <outerBoundaryIs>
          <LinearRing>
            <coordinates>
              3.5004694,47.4033730
              3.5005225,47.4033406
              3.5005455,47.4033869
              3.5004713,47.4033771
              3.5004694,47.4033730
            </coordinates>
          </LinearRing>
        </outerBoundaryIs>
      </Polygon>
      <Polygon>
        <altitudeMode>clampToGround</altitudeMode>
        <extrude>1</extrude>
        <tessellate>1</tessellate>
        <outerBoundaryIs>
          <LinearRing>
            <coordinates>
              3.5005225,47.4033406
              3.5005322,47.4033573
              3.5005377,47.4033670
              3.5005455,47.4033869
              3.5005225,47.4033406
            </coordinates>
          </LinearRing>
        </outerBoundaryIs>
      </Polygon>
      <Polygon>
        <altitudeMode>clampToGround</altitudeMode>
        <extrude>1</extrude>
        <tessellate>1</tessellate>
        <outerBoundaryIs>
          <LinearRing>
            <coordinates>
              3.5005455,47.4033869
              3.5005058,47.4034280
              3.5005004,47.4034285
              3.5005225,47.4033406
              3.5005455,47.4033869
            </coordinates>
          </LinearRing>
        </outerBoundaryIs>
      </Polygon>
      <Polygon>
        <altitudeMode>clampToGround</altitudeMode>
        <extrude>1</extrude>
        <tessellate>1</tessellate>
        <outerBoundaryIs>
          <LinearRing>
            <coordinates>
              3.5005058,47.4034280
              3.5005541,47.4034777
              3.5005490,47.4034785
              3.5005004,47.4034285
              3.5005058,47.4034280
            </coordinates>
          </LinearRing>
        </outerBoundaryIs>
      </Polygon>
      <Polygon>
        <altitudeMode>clampToGround</altitudeMode>
        <extrude>1</extrude>
        <tessellate>1</tessellate>
        <outerBoundaryIs>
          <LinearRing>
            <coordinates>
              3.5005541,47.4034777
              3.5005343,47.4036132
              3.5005287,47.4036123
              3.5005490,47.4034785
              3.5005541,47.4034777
            </coordinates>
          </LinearRing>
        </outerBoundaryIs>
      </Polygon>
      <Polygon>
        <altitudeMode>clampToGround</altitudeMode>
        <extrude>1</extrude>
        <tessellate>1</tessellate>
        <outerBoundaryIs>
          <LinearRing>
            <coordinates>
              3.5005343,47.4036132
              3.5004977,47.4036783
              3.5004923,47.4036778
              3.5005287,47.4036123
              3.5005343,47.4036132
            </coordinates>
          </LinearRing>
        </outerBoundaryIs>
      </Polygon>
      <Polygon>
        <altitudeMode>clampToGround</altitudeMode>
        <extrude>1</extrude>
        <tessellate>1</tessellate>
        <outerBoundaryIs>
          <LinearRing>
            <coordinates>
              3.5004977,47.4036783
              3.5005106,47.4037628
              3.5005061,47.4037645
              3.5004923,47.4036778
              3.5004977,47.4036783
            </coordinates>
          </LinearRing>
        </outerBoundaryIs>
      </Polygon>
      <Polygon>
        <altitudeMode>clampToGround</altitudeMode>
        <extrude>1</extrude>
        <tessellate>1</tessellate>
        <outerBoundaryIs>
          <LinearRing>
            <coordinates>
              3.5005106,47.4037628
              3.5005463,47.4037814
              3.5005436,47.4037850
              3.5005061,47.4037645
              3.5005106,47.4037628
            </coordinates>
          </LinearRing>
        </outerBoundaryIs>
      </Polygon>
      <Polygon>
        <altitudeMode>clampToGround</altitudeMode>
        <extrude>1</extrude>
        <tessellate>1</tessellate>
        <outerBoundaryIs>
          <LinearRing>
            <coordinates>
              3.5005463,47.4037814
              3.5005466,47.4037816
              3.5005467,47.4037855
              3.5005436,47.4037850
              3.5005463,47.4037814
            </coordinates>
          </LinearRing>
        </outerBoundaryIs>
      </Polygon>
      <Polygon>
        <altitudeMode>clampToGround</altitudeMode>
        <extrude>1</extrude>
        <tessellate>1</tessellate>
        <outerBoundaryIs>
          <LinearRing>
            <coordinates>
              3.5005466,47.4037816
              3.5006300,47.4037628
              3.5006321,47.4037664
              3.5005467,47.4037855
              3.5005466,47.4037816
            </coordinates>
          </LinearRing>
        </outerBoundaryIs>
      </Polygon>
      <Polygon>
        <altitudeMode>clampToGround</altitudeMode>
        <extrude>1</extrude>
        <tessellate>1</tessellate>
        <outerBoundaryIs>
          <LinearRing>
            <coordinates>
              3.5006300,47.4037628
              3.5007183,47.4037345
              3.5007207,47.4037378
              3.5006321,47.4037664
              3.5006300,47.4037628
            </coordinates>
          </LinearRing>
        </outerBoundaryIs>
      </Polygon>
      <Polygon>
        <altitudeMode>clampToGround</altitudeMode>
        <extrude>1</extrude>
        <tessellate>1</tessellate>
        <outerBoundaryIs>
          <LinearRing>
            <coordinates>
              3.5007183,47.4037345
              3.5008452,47.4036879
              3.5008476,47.4036912
              3.5007207,47.4037378
              3.5007183,47.4037345
            </coordinates>
          </LinearRing>
        </outerBoundaryIs>
      </Polygon>
      <Polygon>
        <altitudeMode>clampToGround</altitudeMode>
        <extrude>1</extrude>
        <tessellate>1</tessellate>
        <outerBoundaryIs>
          <LinearRing>
            <coordinates>
              3.5008452,47.4036879
              3.5009720,47.4036493
              3.5009737,47.4036507
              3.5008476,47.4036912
              3.5008452,47.4036879
            </coordinates>
          </LinearRing>
        </outerBoundaryIs>
      </Polygon>
      <Polygon>
        <altitudeMode>clampToGround</altitudeMode>
        <extrude>1</extrude>
        <tessellate>1</tessellate>
        <outerBoundaryIs>
          <LinearRing>
            <coordinates>
              3.5009720,47.4036493
              3.5010485,47.4035834
              3.5010530,47.4035859
              3.5009737,47.4036507
              3.5009720,47.4036493
            </coordinates>
          </LinearRing>
        </outerBoundaryIs>
      </Polygon>
      <Polygon>
        <altitudeMode>clampToGround</altitudeMode>
        <extrude>1</extrude>
        <tessellate>1</tessellate>
        <outerBoundaryIs>
          <LinearRing>
            <coordinates>
              3.5010485,47.4035834
              3.5011731,47.4034831
              3.5011770,47.4034855
              3.5010530,47.4035859
              3.5010485,47.4035834
            </coordinates>
          </LinearRing>
        </outerBoundaryIs>
      </Polygon>
      <Polygon>
        <altitudeMode>clampToGround</altitudeMode>
        <extrude>1</extrude>
        <tessellate>1</tessellate>
        <outerBoundaryIs>
          <LinearRing>
            <coordinates>
              3.5011731,47.4034831
              3.5012612,47.4034265
              3.5012612,47.4034265
              3.5011770,47.4034855
              3.5011731,47.4034831
            </coordinates>
          </LinearRing>
        </outerBoundaryIs>
      </Polygon>
      <Polygon>
        <altitudeMode>clampToGround</altitudeMode>
        <extrude>1</extrude>
        <tessellate>1</tessellate>
        <outerBoundaryIs>
          <LinearRing>
            <coordinates>
              3.5012612,47.4034265
              3.5012632,47.4034258
              3.5012637,47.4034288
              3.5012612,47.4034265
              3.5012612,47.4034265
            </coordinates>
          </LinearRing>
        </outerBoundaryIs>
      </Polygon>
      <Polygon>
        <altitudeMode>clampToGround</altitudeMode>
        <extrude>1</extrude>
        <tessellate>1</tessellate>
        <outerBoundaryIs>
          <LinearRing>
            <coordinates>
              3.5012632,47.4034258
              3.5013482,47.4033619
              3.5013524,47.4033642
              3.5012637,47.4034288
              3.5012632,47.4034258
            </coordinates>
          </LinearRing>
        </outerBoundaryIs>
      </Polygon>
      <Polygon>
        <altitudeMode>clampToGround</altitudeMode>
        <extrude>1</extrude>
        <tessellate>1</tessellate>
        <outerBoundaryIs>
          <LinearRing>
            <coordinates>
              3.5013482,47.4033619
              3.5014222,47.4032902
              3.5014263,47.4032923
              3.5013524,47.4033642
              3.5013482,47.4033619
            </coordinates>
          </LinearRing>
        </outerBoundaryIs>
      </Polygon>
      <Polygon>
        <altitudeMode>clampToGround</altitudeMode>
        <extrude>1</extrude>
        <tessellate>1</tessellate>
        <outerBoundaryIs>
          <LinearRing>
            <coordinates>
              3.5014222,47.4032902
              3.5015264,47.4032099
              3.5015264,47.4032099
              3.5014263,47.4032923
              3.5014222,47.4032902
            </coordinates>
          </LinearRing>
        </outerBoundaryIs>
      </Polygon>
      <Polygon>
        <altitudeMode>clampToGround</altitudeMode>
        <extrude>1</extrude>
        <tessellate>1</tessellate>
        <outerBoundaryIs>
          <LinearRing>
            <coordinates>
              3.5015264,47.4032099
              3.5016281,47.4031289
              3.5016281,47.4031289
              3.5015264,47.4032099
              3.5015264,47.4032099
            </coordinates>
          </LinearRing>
        </outerBoundaryIs>
      </Polygon>
      <Polygon>
        <altitudeMode>clampToGround</altitudeMode>
        <extrude>1</extrude>
        <tessellate>1</tessellate>
        <outerBoundaryIs>
          <LinearRing>
            <coordinates>
              3.5016281,47.4031289
              3.5017262,47.4030494
              3.5017262,47.4030494
              3.5016281,47.4031289
              3.5016281,47.4031289
            </coordinates>
          </LinearRing>
        </outerBoundaryIs>
      </Polygon>
      <Polygon>
        <altitudeMode>clampToGround</altitudeMode>
        <extrude>1</extrude>
        <tessellate>1</tessellate>
        <outerBoundaryIs>
          <LinearRing>
            <coordinates>
              3.5017262,47.4030494
              3.5018246,47.4029701
              3.5018246,47.4029701
              3.5017262,47.4030494
              3.5017262,47.4030494
            </coordinates>
          </LinearRing>
        </outerBoundaryIs>
      </Polygon>
      <Polygon>
        <altitudeMode>clampToGround</altitudeMode>
        <extrude>1</extrude>
        <tessellate>1</tessellate>
        <outerBoundaryIs>
          <LinearRing>
            <coordinates>
              3.5018246,47.4029701
              3.5019211,47.4028906
              3.5019253,47.4028907
              3.5018246,47.4029701
              3.5018246,47.4029701
            </coordinates>
          </LinearRing>
        </outerBoundaryIs>
      </Polygon>
      <Polygon>
        <altitudeMode>clampToGround</altitudeMode>
        <extrude>1</extrude>
        <tessellate>1</tessellate>
        <outerBoundaryIs>
          <LinearRing>
            <coordinates>
              3.5019211,47.4028906
              3.5019013,47.4028704
              3.5019013,47.4028704
              3.5019253,47.4028907
              3.5019211,47.4028906
            </coordinates>
          </LinearRing>
        </outerBoundaryIs>
      </Polygon>
      <Polygon>
        <altitudeMode>clampToGround</altitudeMode>
        <extrude>1</extrude>
        <tessellate>1</tessellate>
        <outerBoundaryIs>
          <LinearRing>
            <coordinates>
              3.5019013,47.4028704
              3.5019411,47.4028822
              3.5019327,47.4028870
              3.5019013,47.4028704
              3.5019013,47.4028704
            </coordinates>
          </LinearRing>
        </outerBoundaryIs>
      </Polygon>
      <Polygon>
        <altitudeMode>clampToGround</altitudeMode>
        <extrude>1</extrude>
        <tessellate>1</tessellate>
        <outerBoundaryIs>
          <LinearRing>
            <coordinates>
              3.5019411,47.4028822
              3.5019624,47.4029360
              3.5019068,47.4029073
              3.5019327,47.4028870
              3.5019411,47.4028822
            </coordinates>
          </LinearRing>
        </outerBoundaryIs>
      </Polygon>
      <Polygon>
        <altitudeMode>clampToGround</altitudeMode>
        <extrude>1</extrude>
        <tessellate>1</tessellate>
        <outerBoundaryIs>
          <LinearRing>
            <coordinates>
              3.5019624,47.4029360
              3.5019036,47.4029428
              3.5018852,47.4029341
              3.5019068,47.4029073
              3.5019624,47.4029360
            </coordinates>
          </LinearRing>
        </outerBoundaryIs>
      </Polygon>
      <Polygon>
        <altitudeMode>clampToGround</altitudeMode>
        <extrude>1</extrude>
        <tessellate>1</tessellate>
        <outerBoundaryIs>
          <LinearRing>
            <coordinates>
              3.5019036,47.4029428
              3.5018977,47.4029539
              3.5018977,47.4029539
              3.5018852,47.4029341
              3.5019036,47.4029428
            </coordinates>
          </LinearRing>
        </outerBoundaryIs>
      </Polygon>
      <Polygon>
        <altitudeMode>clampToGround</altitudeMode>
        <extrude>1</extrude>
        <tessellate>1</tessellate>
        <outerBoundaryIs>
          <LinearRing>
            <coordinates>
              3.5018977,47.4029539
              3.5018909,47.4029593
              3.5018909,47.4029593
              3.5018977,47.4029539
              3.5018977,47.4029539
            </coordinates>
          </LinearRing>
        </outerBoundaryIs>
      </Polygon>
      <Polygon>
        <altitudeMode>clampToGround</altitudeMode>
        <extrude>1</extrude>
        <tessellate>1</tessellate>
        <outerBoundaryIs>
          <LinearRing>
            <coordinates>
              3.5018909,47.4029593
              3.5018875,47.4029501
              3.5019302,47.4029530
              3.5018909,47.4029593
              3.5018909,47.4029593
            </coordinates>
          </LinearRing>
        </outerBoundaryIs>
      </Polygon>
      <Polygon>
        <altitudeMode>clampToGround</altitudeMode>
        <extrude>1</extrude>
        <tessellate>1</tessellate>
        <outerBoundaryIs>
          <LinearRing>
            <coordinates>
              3.5018875,47.4029501
              3.5018922,47.4029338
              3.5019047,47.4029333
              3.5019302,47.4029530
              3.5018875,47.4029501
            </coordinates>
          </LinearRing>
        </outerBoundaryIs>
      </Polygon>
      <Polygon>
        <altitudeMode>clampToGround</altitudeMode>
        <extrude>1</extrude>
        <tessellate>1</tessellate>
        <outerBoundaryIs>
          <LinearRing>
            <coordinates>
              3.5018922,47.4029338
              3.5018907,47.4029297
              3.5019033,47.4029277
              3.5019047,47.4029333
              3.5018922,47.4029338
            </coordinates>
          </LinearRing>
        </outerBoundaryIs>
      </Polygon>
      <Polygon>
        <altitudeMode>clampToGround</altitudeMode>
        <extrude>1</extrude>
        <tessellate>1</tessellate>
        <outerBoundaryIs>
          <LinearRing>
            <coordinates>
              3.5018907,47.4029297
              3.5018613,47.4029244
              3.5018965,47.4028979
              3.5019033,47.4029277
              3.5018907,47.4029297
            </coordinates>
          </LinearRing>
        </outerBoundaryIs>
      </Polygon>
      <Polygon>
        <altitudeMode>clampToGround</altitudeMode>
        <extrude>1</extrude>
        <tessellate>1</tessellate>
        <outerBoundaryIs>
          <LinearRing>
            <coordinates>
              3.5018613,47.4029244
              3.5017685,47.4029287
              3.5017739,47.4028961
              3.5018965,47.4028979
              3.5018613,47.4029244
            </coordinates>
          </LinearRing>
        </outerBoundaryIs>
      </Polygon>
      <Polygon>
        <altitudeMode>clampToGround</altitudeMode>
        <extrude>1</extrude>
        <tessellate>1</tessellate>
        <outerBoundaryIs>
          <LinearRing>
            <coordinates>
              3.5018965,47.4028979
              3.5019398,47.4028754
              3.5019305,47.4029439
              3.5018613,47.4029244
              3.5018965,47.4028979
            </coordinates>
          </LinearRing>
        </outerBoundaryIs>
      </Polygon>
      <Polygon>
        <altitudeMode>clampToGround</altitudeMode>
        <extrude>1</extrude>
        <tessellate>1</tessellate>
        <outerBoundaryIs>
          <LinearRing>
            <coordinates>
              3.5019398,47.4028754
              3.5019649,47.4028892
              3.5019923,47.4029205
              3.5019305,47.4029439
              3.5019398,47.4028754
            </coordinates>
          </LinearRing>
        </outerBoundaryIs>
      </Polygon>
      <Polygon>
        <altitudeMode>clampToGround</altitudeMode>
        <extrude>1</extrude>
        <tessellate>1</tessellate>
        <outerBoundaryIs>
          <LinearRing>
            <coordinates>
              3.5019649,47.4028892
              3.5020005,47.4028786
              3.5020224,47.4028869
              3.5019923,47.4029205
              3.5019649,47.4028892
            </coordinates>
          </LinearRing>
        </outerBoundaryIs>
      </Polygon>
      <Polygon>
        <altitudeMode>clampToGround</altitudeMode>
        <extrude>1</extrude>
        <tessellate>1</tessellate>
        <outerBoundaryIs>
          <LinearRing>
            <coordinates>
              3.5020005,47.4028786
              3.5020096,47.4028567
              3.5020367,47.4028539
              3.5020224,47.4028869
              3.5020005,47.4028786
            </coordinates>
          </LinearRing>
        </outerBoundaryIs>
      </Polygon>
      <Polygon>
        <altitudeMode>clampToGround</altitudeMode>
        <extrude>1</extrude>
        <tessellate>1</tessellate>
        <outerBoundaryIs>
          <LinearRing>
            <coordinates>
              3.5020096,47.4028567
              3.5020014,47.4028458
              3.5020436,47.4028456
              3.5020367,47.4028539
              3.5020096,47.4028567
            </coordinates>
          </LinearRing>
        </outerBoundaryIs>
      </Polygon>
      <Polygon>
        <altitudeMode>clampToGround</altitudeMode>
        <extrude>1</extrude>
        <tessellate>1</tessellate>
        <outerBoundaryIs>
          <LinearRing>
            <coordinates>
              3.5020014,47.4028458
              3.5020345,47.4028308
              3.5020408,47.4028314
              3.5020436,47.4028456
              3.5020014,47.4028458
            </coordinates>
          </LinearRing>
        </outerBoundaryIs>
      </Polygon>
      <Polygon>
        <altitudeMode>clampToGround</altitudeMode>
        <extrude>1</extrude>
        <tessellate>1</tessellate>
        <outerBoundaryIs>
          <LinearRing>
            <coordinates>
              3.5020345,47.4028308
              3.5020277,47.4028248
              3.5020363,47.4028221
              3.5020408,47.4028314
              3.5020345,47.4028308
            </coordinates>
          </LinearRing>
        </outerBoundaryIs>
      </Polygon>
      <Polygon>
        <altitudeMode>clampToGround</altitudeMode>
        <extrude>1</extrude>
        <tessellate>1</tessellate>
        <outerBoundaryIs>
          <LinearRing>
            <coordinates>
              3.5020277,47.4028248
              3.5020125,47.4028084
              3.5020378,47.4028036
              3.5020363,47.4028221
              3.5020277,47.4028248
            </coordinates>
          </LinearRing>
        </outerBoundaryIs>
      </Polygon>
      <Polygon>
        <altitudeMode>clampToGround</altitudeMode>
        <extrude>1</extrude>
        <tessellate>1</tessellate>
        <outerBoundaryIs>
          <LinearRing>
            <coordinates>
              3.5020125,47.4028084
              3.5020001,47.4027709
              3.5020176,47.4027698
              3.5020378,47.4028036
              3.5020125,47.4028084
            </coordinates>
          </LinearRing>
        </outerBoundaryIs>
      </Polygon>
      <Polygon>
        <altitudeMode>clampToGround</altitudeMode>
        <extrude>1</extrude>
        <tessellate>1</tessellate>
        <outerBoundaryIs>
          <LinearRing>
            <coordinates>
              3.5020001,47.4027709
              3.5019977,47.4027583
              3.5020183,47.4027575
              3.5020176,47.4027698
              3.5020001,47.4027709
            </coordinates>
          </LinearRing>
        </outerBoundaryIs>
      </Polygon>
      <Polygon>
        <altitudeMode>clampToGround</altitudeMode>
        <extrude>1</extrude>
        <tessellate>1</tessellate>
        <outerBoundaryIs>
          <LinearRing>
            <coordinates>
              3.5019977,47.4027583
              3.5019648,47.4027244
              3.5020238,47.4027213
              3.5020183,47.4027575
              3.5019977,47.4027583
            </coordinates>
          </LinearRing>
        </outerBoundaryIs>
      </Polygon>
      <Polygon>
        <altitudeMode>clampToGround</altitudeMode>
        <extrude>1</extrude>
        <tessellate>1</tessellate>
        <outerBoundaryIs>
          <LinearRing>
            <coordinates>
              3.5019648,47.4027244
              3.5019683,47.4026702
              3.5020214,47.4026830
              3.5020238,47.4027213
              3.5019648,47.4027244
            </coordinates>
          </LinearRing>
        </outerBoundaryIs>
      </Polygon>
      <Polygon>
        <altitudeMode>clampToGround</altitudeMode>
        <extrude>1</extrude>
        <tessellate>1</tessellate>
        <outerBoundaryIs>
          <LinearRing>
            <coordinates>
              3.5019683,47.4026702
              3.5020219,47.4026212
              3.5020572,47.4026905
              3.5020214,47.4026830
              3.5019683,47.4026702
            </coordinates>
          </LinearRing>
        </outerBoundaryIs>
      </Polygon>
      <Polygon>
        <altitudeMode>clampToGround</altitudeMode>
        <extrude>1</extrude>
        <tessellate>1</tessellate>
        <outerBoundaryIs>
          <LinearRing>
            <coordinates>
              3.5020219,47.4026212
              3.5021121,47.4026361
              3.5021054,47.4026650
              3.5020572,47.4026905
              3.5020219,47.4026212
            </coordinates>
          </LinearRing>
        </outerBoundaryIs>
      </Polygon>
      <Polygon>
        <altitudeMode>clampToGround</altitudeMode>
        <extrude>1</extrude>
        <tessellate>1</tessellate>
        <outerBoundaryIs>
          <LinearRing>
            <coordinates>
              3.5021121,47.4026361
              3.5021819,47.4026460
              3.5021977,47.4026648
              3.5021054,47.4026650
              3.5021121,47.4026361
            </coordinates>
          </LinearRing>
        </outerBoundaryIs>
      </Polygon>
      <Polygon>
        <altitudeMode>clampToGround</altitudeMode>
        <extrude>1</extrude>
        <tessellate>1</tessellate>
        <outerBoundaryIs>
          <LinearRing>
            <coordinates>
              3.5021819,47.4026460
              3.5022110,47.4026220
              3.5022359,47.4026255
              3.5021977,47.4026648
              3.5021819,47.4026460
            </coordinates>
          </LinearRing>
        </outerBoundaryIs>
      </Polygon>
      <Polygon>
        <altitudeMode>clampToGround</altitudeMode>
        <extrude>1</extrude>
        <tessellate>1</tessellate>
        <outerBoundaryIs>
          <LinearRing>
            <coordinates>
              3.5022110,47.4026220
              3.5022043,47.4024933
              3.5022344,47.4025122
              3.5022359,47.4026255
              3.5022110,47.4026220
            </coordinates>
          </LinearRing>
        </outerBoundaryIs>
      </Polygon>
      <Polygon>
        <altitudeMode>clampToGround</altitudeMode>
        <extrude>1</extrude>
        <tessellate>1</tessellate>
        <outerBoundaryIs>
          <LinearRing>
            <coordinates>
              3.5022043,47.4024933
              3.5023016,47.4024713
              3.5023211,47.4025008
              3.5022344,47.4025122
              3.5022043,47.4024933
            </coordinates>
          </LinearRing>
        </outerBoundaryIs>
      </Polygon>
      <Polygon>
        <altitudeMode>clampToGround</altitudeMode>
        <extrude>1</extrude>
        <tessellate>1</tessellate>
        <outerBoundaryIs>
          <LinearRing>
            <coordinates>
              3.5023016,47.4024713
              3.5023821,47.4024427
              3.5023845,47.4024710
              3.5023211,47.4025008
              3.5023016,47.4024713
            </coordinates>
          </LinearRing>
        </outerBoundaryIs>
      </Polygon>
      <Polygon>
        <altitudeMode>clampToGround</altitudeMode>
        <extrude>1</extrude>
        <tessellate>1</tessellate>
        <outerBoundaryIs>
          <LinearRing>
            <coordinates>
              3.5023821,47.4024427
              3.5025041,47.4024808
              3.5024865,47.4025183
              3.5023845,47.4024710
              3.5023821,47.4024427
            </coordinates>
          </LinearRing>
        </outerBoundaryIs>
      </Polygon>
      <Polygon>
        <altitudeMode>clampToGround</altitudeMode>
        <extrude>1</extrude>
        <tessellate>1</tessellate>
        <outerBoundaryIs>
          <LinearRing>
            <coordinates>
              3.5025041,47.4024808
              3.5027294,47.4024873
              3.5026936,47.4025136
              3.5024865,47.4025183
              3.5025041,47.4024808
            </coordinates>
          </LinearRing>
        </outerBoundaryIs>
      </Polygon>
      <Polygon>
        <altitudeMode>clampToGround</altitudeMode>
        <extrude>1</extrude>
        <tessellate>1</tessellate>
        <outerBoundaryIs>
          <LinearRing>
            <coordinates>
              3.5027294,47.4024873
              3.5027339,47.4025682
              3.5027119,47.4025847
              3.5026936,47.4025136
              3.5027294,47.4024873
            </coordinates>
          </LinearRing>
        </outerBoundaryIs>
      </Polygon>
      <Polygon>
        <altitudeMode>clampToGround</altitudeMode>
        <extrude>1</extrude>
        <tessellate>1</tessellate>
        <outerBoundaryIs>
          <LinearRing>
            <coordinates>
              3.5027339,47.4025682
              3.5029518,47.4025316
              3.5029779,47.4025549
              3.5027119,47.4025847
              3.5027339,47.4025682
            </coordinates>
          </LinearRing>
        </outerBoundaryIs>
      </Polygon>
      <Polygon>
        <altitudeMode>clampToGround</altitudeMode>
        <extrude>1</extrude>
        <tessellate>1</tessellate>
        <outerBoundaryIs>
          <LinearRing>
            <coordinates>
              3.5029518,47.4025316
              3.5030201,47.4024780
              3.5030365,47.4024944
              3.5029779,47.4025549
              3.5029518,47.4025316
            </coordinates>
          </LinearRing>
        </outerBoundaryIs>
      </Polygon>
      <Polygon>
        <altitudeMode>clampToGround</altitudeMode>
        <extrude>1</extrude>
        <tessellate>1</tessellate>
        <outerBoundaryIs>
          <LinearRing>
            <coordinates>
              3.5030201,47.4024780
              3.5031293,47.4024728
              3.5031109,47.4024918
              3.5030365,47.4024944
              3.5030201,47.4024780
            </coordinates>
          </LinearRing>
        </outerBoundaryIs>
      </Polygon>
      <Polygon>
        <altitudeMode>clampToGround</altitudeMode>
        <extrude>1</extrude>
        <tessellate>1</tessellate>
        <outerBoundaryIs>
          <LinearRing>
            <coordinates>
              3.5031293,47.4024728
              3.5031738,47.4025334
              3.5031561,47.4025578
              3.5031109,47.4024918
              3.5031293,47.4024728
            </coordinates>
          </LinearRing>
        </outerBoundaryIs>
      </Polygon>
      <Polygon>
        <altitudeMode>clampToGround</altitudeMode>
        <extrude>1</extrude>
        <tessellate>1</tessellate>
        <outerBoundaryIs>
          <LinearRing>
            <coordinates>
              3.5031738,47.4025334
              3.5033433,47.4025045
              3.5033036,47.4025473
              3.5031561,47.4025578
              3.5031738,47.4025334
            </coordinates>
          </LinearRing>
        </outerBoundaryIs>
      </Polygon>
      <Polygon>
        <altitudeMode>clampToGround</altitudeMode>
        <extrude>1</extrude>
        <tessellate>1</tessellate>
        <outerBoundaryIs>
          <LinearRing>
            <coordinates>
              3.5033433,47.4025045
              3.5033759,47.4026746
              3.5033460,47.4026738
              3.5033036,47.4025473
              3.5033433,47.4025045
            </coordinates>
          </LinearRing>
        </outerBoundaryIs>
      </Polygon>
      <Polygon>
        <altitudeMode>clampToGround</altitudeMode>
        <extrude>1</extrude>
        <tessellate>1</tessellate>
        <outerBoundaryIs>
          <LinearRing>
            <coordinates>
              3.5033759,47.4026746
              3.5033921,47.4027360
              3.5033397,47.4027649
              3.5033460,47.4026738
              3.5033759,47.4026746
            </coordinates>
          </LinearRing>
        </outerBoundaryIs>
      </Polygon>
      <Polygon>
        <altitudeMode>clampToGround</altitudeMode>
        <extrude>1</extrude>
        <tessellate>1</tessellate>
        <outerBoundaryIs>
          <LinearRing>
            <coordinates>
              3.5033921,47.4027360
              3.5035592,47.4027492
              3.5035522,47.4027769
              3.5033397,47.4027649
              3.5033921,47.4027360
            </coordinates>
          </LinearRing>
        </outerBoundaryIs>
      </Polygon>
      <Polygon>
        <altitudeMode>clampToGround</altitudeMode>
        <extrude>1</extrude>
        <tessellate>1</tessellate>
        <outerBoundaryIs>
          <LinearRing>
            <coordinates>
              3.5035592,47.4027492
              3.5036975,47.4027755
              3.5037328,47.4028080
              3.5035522,47.4027769
              3.5035592,47.4027492
            </coordinates>
          </LinearRing>
        </outerBoundaryIs>
      </Polygon>
      <Polygon>
        <altitudeMode>clampToGround</altitudeMode>
        <extrude>1</extrude>
        <tessellate>1</tessellate>
        <outerBoundaryIs>
          <LinearRing>
            <coordinates>
              3.5036975,47.4027755
              3.5037178,47.4026837
              3.5037509,47.4027027
              3.5037328,47.4028080
              3.5036975,47.4027755
            </coordinates>
          </LinearRing>
        </outerBoundaryIs>
      </Polygon>
      <Polygon>
        <altitudeMode>clampToGround</altitudeMode>
        <extrude>1</extrude>
        <tessellate>1</tessellate>
        <outerBoundaryIs>
          <LinearRing>
            <coordinates>
              3.5037178,47.4026837
              3.5040064,47.4026562
              3.5040045,47.4026837
              3.5037509,47.4027027
              3.5037178,47.4026837
            </coordinates>
          </LinearRing>
        </outerBoundaryIs>
      </Polygon>
      <Polygon>
        <altitudeMode>clampToGround</altitudeMode>
        <extrude>1</extrude>
        <tessellate>1</tessellate>
        <outerBoundaryIs>
          <LinearRing>
            <coordinates>
              3.5040064,47.4026562
              3.5040780,47.4026604
              3.5040744,47.4026959
              3.5040045,47.4026837
              3.5040064,47.4026562
            </coordinates>
          </LinearRing>
        </outerBoundaryIs>
      </Polygon>
      <Polygon>
        <altitudeMode>clampToGround</altitudeMode>
        <extrude>1</extrude>
        <tessellate>1</tessellate>
        <outerBoundaryIs>
          <LinearRing>
            <coordinates>
              3.5040780,47.4026604
              3.5041538,47.4026532
              3.5041700,47.4026766
              3.5040744,47.4026959
              3.5040780,47.4026604
            </coordinates>
          </LinearRing>
        </outerBoundaryIs>
      </Polygon>
      <Polygon>
        <altitudeMode>clampToGround</altitudeMode>
        <extrude>1</extrude>
        <tessellate>1</tessellate>
        <outerBoundaryIs>
          <LinearRing>
            <coordinates>
              3.5041538,47.4026532
              3.5042236,47.4026192
              3.5042381,47.4026474
              3.5041700,47.4026766
              3.5041538,47.4026532
            </coordinates>
          </LinearRing>
        </outerBoundaryIs>
      </Polygon>
      <Polygon>
        <altitudeMode>clampToGround</altitudeMode>
        <extrude>1</extrude>
        <tessellate>1</tessellate>
        <outerBoundaryIs>
          <LinearRing>
            <coordinates>
              3.5042236,47.4026192
              3.5043664,47.4026138
              3.5044046,47.4026459
              3.5042381,47.4026474
              3.5042236,47.4026192
            </coordinates>
          </LinearRing>
        </outerBoundaryIs>
      </Polygon>
      <Polygon>
        <altitudeMode>clampToGround</altitudeMode>
        <extrude>1</extrude>
        <tessellate>1</tessellate>
        <outerBoundaryIs>
          <LinearRing>
            <coordinates>
              3.5043664,47.4026138
              3.5043691,47.4025380
              3.5044141,47.4025290
              3.5044046,47.4026459
              3.5043664,47.4026138
            </coordinates>
          </LinearRing>
        </outerBoundaryIs>
      </Polygon>
      <Polygon>
        <altitudeMode>clampToGround</altitudeMode>
        <extrude>1</extrude>
        <tessellate>1</tessellate>
        <outerBoundaryIs>
          <LinearRing>
            <coordinates>
              3.5043691,47.4025380
              3.5043214,47.4024564
              3.5043895,47.4024728
              3.5044141,47.4025290
              3.5043691,47.4025380
            </coordinates>
          </LinearRing>
        </outerBoundaryIs>
      </Polygon>
      <Polygon>
        <altitudeMode>clampToGround</altitudeMode>
        <extrude>1</extrude>
        <tessellate>1</tessellate>
        <outerBoundaryIs>
          <LinearRing>
            <coordinates>
              3.5043214,47.4024564
              3.5046192,47.4024074
              3.5046067,47.4024440
              3.5043895,47.4024728
              3.5043214,47.4024564
            </coordinates>
          </LinearRing>
        </outerBoundaryIs>
      </Polygon>
      <Polygon>
        <altitudeMode>clampToGround</altitudeMode>
        <extrude>1</extrude>
        <tessellate>1</tessellate>
        <outerBoundaryIs>
          <LinearRing>
            <coordinates>
              3.5046192,47.4024074
              3.5047310,47.4024564
              3.5047311,47.4024778
              3.5046067,47.4024440
              3.5046192,47.4024074
            </coordinates>
          </LinearRing>
        </outerBoundaryIs>
      </Polygon>
      <Polygon>
        <altitudeMode>clampToGround</altitudeMode>
        <extrude>1</extrude>
        <tessellate>1</tessellate>
        <outerBoundaryIs>
          <LinearRing>
            <coordinates>
              3.5047310,47.4024564
              3.5047967,47.4024304
              3.5047958,47.4024559
              3.5047311,47.4024778
              3.5047310,47.4024564
            </coordinates>
          </LinearRing>
        </outerBoundaryIs>
      </Polygon>
      <Polygon>
        <altitudeMode>clampToGround</altitudeMode>
        <extrude>1</extrude>
        <tessellate>1</tessellate>
        <outerBoundaryIs>
          <LinearRing>
            <coordinates>
              3.5047967,47.4024304
              3.5048842,47.4024744
              3.5048815,47.4024990
              3.5047958,47.4024559
              3.5047967,47.4024304
            </coordinates>
          </LinearRing>
        </outerBoundaryIs>
      </Polygon>
      <Polygon>
        <altitudeMode>clampToGround</altitudeMode>
        <extrude>1</extrude>
        <tessellate>1</tessellate>
        <outerBoundaryIs>
          <LinearRing>
            <coordinates>
              3.5048842,47.4024744
              3.5049946,47.4024395
              3.5049946,47.4024395
              3.5048815,47.4024990
              3.5048842,47.4024744
            </coordinates>
          </LinearRing>
        </outerBoundaryIs>
      </Polygon>
      <Polygon>
        <altitudeMode>clampToGround</altitudeMode>
        <extrude>1</extrude>
        <tessellate>1</tessellate>
        <outerBoundaryIs>
          <LinearRing>
            <coordinates>
              3.5049946,47.4024395
              3.5050996,47.4023754
              3.5051108,47.4023947
              3.5049946,47.4024395
              3.5049946,47.4024395
            </coordinates>
          </LinearRing>
        </outerBoundaryIs>
      </Polygon>
      <Polygon>
        <altitudeMode>clampToGround</altitudeMode>
        <extrude>1</extrude>
        <tessellate>1</tessellate>
        <outerBoundaryIs>
          <LinearRing>
            <coordinates>
              3.5050996,47.4023754
              3.5052163,47.4023545
              3.5052465,47.4023900
              3.5051108,47.4023947
              3.5050996,47.4023754
            </coordinates>
          </LinearRing>
        </outerBoundaryIs>
      </Polygon>
      <Polygon>
        <altitudeMode>clampToGround</altitudeMode>
        <extrude>1</extrude>
        <tessellate>1</tessellate>
        <outerBoundaryIs>
          <LinearRing>
            <coordinates>
              3.5052163,47.4023545
              3.5052805,47.4023302
              3.5052995,47.4023499
              3.5052465,47.4023900
              3.5052163,47.4023545
            </coordinates>
          </LinearRing>
        </outerBoundaryIs>
      </Polygon>
      <Polygon>
        <altitudeMode>clampToGround</altitudeMode>
        <extrude>1</extrude>
        <tessellate>1</tessellate>
        <outerBoundaryIs>
          <LinearRing>
            <coordinates>
              3.5052805,47.4023302
              3.5053671,47.4023081
              3.5053968,47.4023330
              3.5052995,47.4023499
              3.5052805,47.4023302
            </coordinates>
          </LinearRing>
        </outerBoundaryIs>
      </Polygon>
      <Polygon>
        <altitudeMode>clampToGround</altitudeMode>
        <extrude>1</extrude>
        <tessellate>1</tessellate>
        <outerBoundaryIs>
          <LinearRing>
            <coordinates>
              3.5053671,47.4023081
              3.5053833,47.4022825
              3.5054079,47.4022791
              3.5053968,47.4023330
              3.5053671,47.4023081
            </coordinates>
          </LinearRing>
        </outerBoundaryIs>
      </Polygon>
      <Polygon>
        <altitudeMode>clampToGround</altitudeMode>
        <extrude>1</extrude>
        <tessellate>1</tessellate>
        <outerBoundaryIs>
          <LinearRing>
            <coordinates>
              3.5053833,47.4022825
              3.5053404,47.4022471
              3.5053729,47.4022369
              3.5054079,47.4022791
              3.5053833,47.4022825
            </coordinates>
          </LinearRing>
        </outerBoundaryIs>
      </Polygon>
      <Polygon>
        <altitudeMode>clampToGround</altitudeMode>
        <extrude>1</extrude>
        <tessellate>1</tessellate>
        <outerBoundaryIs>
          <LinearRing>
            <coordinates>
              3.5053404,47.4022471
              3.5053400,47.4021927
              3.5053612,47.4021998
              3.5053729,47.4022369
              3.5053404,47.4022471
            </coordinates>
          </LinearRing>
        </outerBoundaryIs>
      </Polygon>
      <Polygon>
        <altitudeMode>clampToGround</altitudeMode>
        <extrude>1</extrude>
        <tessellate>1</tessellate>
        <outerBoundaryIs>
          <LinearRing>
            <coordinates>
              3.5053400,47.4021927
              3.5053930,47.4021628
              3.5054044,47.4021811
              3.5053612,47.4021998
              3.5053400,47.4021927
            </coordinates>
          </LinearRing>
        </outerBoundaryIs>
      </Polygon>
      <Polygon>
        <altitudeMode>clampToGround</altitudeMode>
        <extrude>1</extrude>
        <tessellate>1</tessellate>
        <outerBoundaryIs>
          <LinearRing>
            <coordinates>
              3.5053930,47.4021628
              3.5055166,47.4021453
              3.5055303,47.4021578
              3.5054044,47.4021811
              3.5053930,47.4021628
            </coordinates>
          </LinearRing>
        </outerBoundaryIs>
      </Polygon>
      <Polygon>
        <altitudeMode>clampToGround</altitudeMode>
        <extrude>1</extrude>
        <tessellate>1</tessellate>
        <outerBoundaryIs>
          <LinearRing>
            <coordinates>
              3.5055166,47.4021453
              3.5055902,47.4020358
              3.5056101,47.4020423
              3.5055303,47.4021578
              3.5055166,47.4021453
            </coordinates>
          </LinearRing>
        </outerBoundaryIs>
      </Polygon>
      <Polygon>
        <altitudeMode>clampToGround</altitudeMode>
        <extrude>1</extrude>
        <tessellate>1</tessellate>
        <outerBoundaryIs>
          <LinearRing>
            <coordinates>
              3.5055902,47.4020358
              3.5056353,47.4019779
              3.5056729,47.4019980
              3.5056101,47.4020423
              3.5055902,47.4020358
            </coordinates>
          </LinearRing>
        </outerBoundaryIs>
      </Polygon>
      <Polygon>
        <altitudeMode>clampToGround</altitudeMode>
        <extrude>1</extrude>
        <tessellate>1</tessellate>
        <outerBoundaryIs>
          <LinearRing>
            <coordinates>
              3.5056353,47.4019779
              3.5057246,47.4019217
              3.5057648,47.4019231
              3.5056729,47.4019980
              3.5056353,47.4019779
            </coordinates>
          </LinearRing>
        </outerBoundaryIs>
      </Polygon>
      <Polygon>
        <altitudeMode>clampToGround</altitudeMode>
        <extrude>1</extrude>
        <tessellate>1</tessellate>
        <outerBoundaryIs>
          <LinearRing>
            <coordinates>
              3.5057246,47.4019217
              3.5056833,47.4018785
              3.5057312,47.4018823
              3.5057648,47.4019231
              3.5057246,47.4019217
            </coordinates>
          </LinearRing>
        </outerBoundaryIs>
      </Polygon>
      <Polygon>
        <altitudeMode>clampToGround</altitudeMode>
        <extrude>1</extrude>
        <tessellate>1</tessellate>
        <outerBoundaryIs>
          <LinearRing>
            <coordinates>
              3.5056833,47.4018785
              3.5057618,47.4018470
              3.5057737,47.4018599
              3.5057312,47.4018823
              3.5056833,47.4018785
            </coordinates>
          </LinearRing>
        </outerBoundaryIs>
      </Polygon>
      <Polygon>
        <altitudeMode>clampToGround</altitudeMode>
        <extrude>1</extrude>
        <tessellate>1</tessellate>
        <outerBoundaryIs>
          <LinearRing>
            <coordinates>
              3.5057618,47.4018470
              3.5057634,47.4018488
              3.5057634,47.4018488
              3.5057737,47.4018599
              3.5057618,47.4018470
            </coordinates>
          </LinearRing>
        </outerBoundaryIs>
      </Polygon>
      <Polygon>
        <altitudeMode>clampToGround</altitudeMode>
        <extrude>1</extrude>
        <tessellate>1</tessellate>
        <outerBoundaryIs>
          <LinearRing>
            <coordinates>
              3.5057634,47.4018488
              3.5058329,47.4018534
              3.5058231,47.4018819
              3.5057634,47.4018488
              3.5057634,47.4018488
            </coordinates>
          </LinearRing>
        </outerBoundaryIs>
      </Polygon>
      <Polygon>
        <altitudeMode>clampToGround</altitudeMode>
        <extrude>1</extrude>
        <tessellate>1</tessellate>
        <outerBoundaryIs>
          <LinearRing>
            <coordinates>
              3.5058329,47.4018534
              3.5059350,47.4018513
              3.5059595,47.4018702
              3.5058231,47.4018819
              3.5058329,47.4018534
            </coordinates>
          </LinearRing>
        </outerBoundaryIs>
      </Polygon>
      <Polygon>
        <altitudeMode>clampToGround</altitudeMode>
        <extrude>1</extrude>
        <tessellate>1</tessellate>
        <outerBoundaryIs>
          <LinearRing>
            <coordinates>
              3.5059350,47.4018513
              3.5059766,47.4017988
              3.5060099,47.4018154
              3.5059595,47.4018702
              3.5059350,47.4018513
            </coordinates>
          </LinearRing>
        </outerBoundaryIs>
      </Polygon>
      <Polygon>
        <altitudeMode>clampToGround</altitudeMode>
        <extrude>1</extrude>
        <tessellate>1</tessellate>
        <outerBoundaryIs>
          <LinearRing>
            <coordinates>
              3.5059766,47.4017988
              3.5060624,47.4017358
              3.5060998,47.4017478
              3.5060099,47.4018154
              3.5059766,47.4017988
            </coordinates>
          </LinearRing>
        </outerBoundaryIs>
      </Polygon>
      <Polygon>
        <altitudeMode>clampToGround</altitudeMode>
        <extrude>1</extrude>
        <tessellate>1</tessellate>
        <outerBoundaryIs>
          <LinearRing>
            <coordinates>
              3.5060624,47.4017358
              3.5060756,47.4016244
              3.5061066,47.4016306
              3.5060998,47.4017478
              3.5060624,47.4017358
            </coordinates>
          </LinearRing>
        </outerBoundaryIs>
      </Polygon>
      <Polygon>
        <altitudeMode>clampToGround</altitudeMode>
        <extrude>1</extrude>
        <tessellate>1</tessellate>
        <outerBoundaryIs>
          <LinearRing>
            <coordinates>
              3.5060756,47.4016244
              3.5061724,47.4015190
              3.5061940,47.4015298
              3.5061066,47.4016306
              3.5060756,47.4016244
            </coordinates>
          </LinearRing>
        </outerBoundaryIs>
      </Polygon>
      <Polygon>
        <altitudeMode>clampToGround</altitudeMode>
        <extrude>1</extrude>
        <tessellate>1</tessellate>
        <outerBoundaryIs>
          <LinearRing>
            <coordinates>
              3.5061724,47.4015190
              3.5063000,47.4014134
              3.5063269,47.4014278
              3.5061940,47.4015298
              3.5061724,47.4015190
            </coordinates>
          </LinearRing>
        </outerBoundaryIs>
      </Polygon>
      <Polygon>
        <altitudeMode>clampToGround</altitudeMode>
        <extrude>1</extrude>
        <tessellate>1</tessellate>
        <outerBoundaryIs>
          <LinearRing>
            <coordinates>
              3.5063000,47.4014134
              3.5064230,47.4013086
              3.5064526,47.4013277
              3.5063269,47.4014278
              3.5063000,47.4014134
            </coordinates>
          </LinearRing>
        </outerBoundaryIs>
      </Polygon>
      <Polygon>
        <altitudeMode>clampToGround</altitudeMode>
        <extrude>1</extrude>
        <tessellate>1</tessellate>
        <outerBoundaryIs>
          <LinearRing>
            <coordinates>
              3.5064230,47.4013086
              3.5065439,47.4012408
              3.5065517,47.4012442
              3.5064526,47.4013277
              3.5064230,47.4013086
            </coordinates>
          </LinearRing>
        </outerBoundaryIs>
      </Polygon>
      <Polygon>
        <altitudeMode>clampToGround</altitudeMode>
        <extrude>1</extrude>
        <tessellate>1</tessellate>
        <outerBoundaryIs>
          <LinearRing>
            <coordinates>
              3.5065439,47.4012408
              3.5066150,47.4011051
              3.5066440,47.4011167
              3.5065517,47.4012442
              3.5065439,47.4012408
            </coordinates>
          </LinearRing>
        </outerBoundaryIs>
      </Polygon>
      <Polygon>
        <altitudeMode>clampToGround</altitudeMode>
        <extrude>1</extrude>
        <tessellate>1</tessellate>
        <outerBoundaryIs>
          <LinearRing>
            <coordinates>
              3.5066150,47.4011051
              3.5067244,47.4010000
              3.5067446,47.4010096
              3.5066440,47.4011167
              3.5066150,47.4011051
            </coordinates>
          </LinearRing>
        </outerBoundaryIs>
      </Polygon>
      <Polygon>
        <altitudeMode>clampToGround</altitudeMode>
        <extrude>1</extrude>
        <tessellate>1</tessellate>
        <outerBoundaryIs>
          <LinearRing>
            <coordinates>
              3.5067244,47.4010000
              3.5067966,47.4009189
              3.5068197,47.4009265
              3.5067446,47.4010096
              3.5067244,47.4010000
            </coordinates>
          </LinearRing>
        </outerBoundaryIs>
      </Polygon>
      <Polygon>
        <altitudeMode>clampToGround</altitudeMode>
        <extrude>1</extrude>
        <tessellate>1</tessellate>
        <outerBoundaryIs>
          <LinearRing>
            <coordinates>
              3.5067966,47.4009189
              3.5069082,47.4007684
              3.5069342,47.4007807
              3.5068197,47.4009265
              3.5067966,47.4009189
            </coordinates>
          </LinearRing>
        </outerBoundaryIs>
      </Polygon>
      <Polygon>
        <altitudeMode>clampToGround</altitudeMode>
        <extrude>1</extrude>
        <tessellate>1</tessellate>
        <outerBoundaryIs>
          <LinearRing>
            <coordinates>
              3.5069082,47.4007684
              3.5070166,47.4006918
              3.5070653,47.4007258
              3.5069342,47.4007807
              3.5069082,47.4007684
            </coordinates>
          </LinearRing>
        </outerBoundaryIs>
      </Polygon>
      <Polygon>
        <altitudeMode>clampToGround</altitudeMode>
        <extrude>1</extrude>
        <tessellate>1</tessellate>
        <outerBoundaryIs>
          <LinearRing>
            <coordinates>
              3.5070166,47.4006918
              3.5070974,47.4006234
              3.5071257,47.4006329
              3.5070653,47.4007258
              3.5070166,47.4006918
            </coordinates>
          </LinearRing>
        </outerBoundaryIs>
      </Polygon>
      <Polygon>
        <altitudeMode>clampToGround</altitudeMode>
        <extrude>1</extrude>
        <tessellate>1</tessellate>
        <outerBoundaryIs>
          <LinearRing>
            <coordinates>
              3.5070974,47.4006234
              3.5071324,47.4005539
              3.5071737,47.4005706
              3.5071257,47.4006329
              3.5070974,47.4006234
            </coordinates>
          </LinearRing>
        </outerBoundaryIs>
      </Polygon>
      <Polygon>
        <altitudeMode>clampToGround</altitudeMode>
        <extrude>1</extrude>
        <tessellate>1</tessellate>
        <outerBoundaryIs>
          <LinearRing>
            <coordinates>
              3.5071324,47.4005539
              3.5071674,47.4005181
              3.5071988,47.4005339
              3.5071737,47.4005706
              3.5071324,47.4005539
            </coordinates>
          </LinearRing>
        </outerBoundaryIs>
      </Polygon>
      <Polygon>
        <altitudeMode>clampToGround</altitudeMode>
        <extrude>1</extrude>
        <tessellate>1</tessellate>
        <outerBoundaryIs>
          <LinearRing>
            <coordinates>
              3.5071674,47.4005181
              3.5072487,47.4003946
              3.5073337,47.4003072
              3.5071988,47.4005339
              3.5071674,47.4005181
            </coordinates>
          </LinearRing>
        </outerBoundaryIs>
      </Polygon>
      <Polygon>
        <altitudeMode>clampToGround</altitudeMode>
        <extrude>1</extrude>
        <tessellate>1</tessellate>
        <outerBoundaryIs>
          <LinearRing>
            <coordinates>
              3.5072487,47.4003946
              3.5072402,47.4003917
              3.5072526,47.4003822
              3.5073337,47.4003072
              3.5072487,47.4003946
            </coordinates>
          </LinearRing>
        </outerBoundaryIs>
      </Polygon>
      <Polygon>
        <altitudeMode>clampToGround</altitudeMode>
        <extrude>1</extrude>
        <tessellate>1</tessellate>
        <outerBoundaryIs>
          <LinearRing>
            <coordinates>
              3.5072402,47.4003917
              3.5073510,47.4002346
              3.5073964,47.4002521
              3.5072526,47.4003822
              3.5072402,47.4003917
            </coordinates>
          </LinearRing>
        </outerBoundaryIs>
      </Polygon>
      <Polygon>
        <altitudeMode>clampToGround</altitudeMode>
        <extrude>1</extrude>
        <tessellate>1</tessellate>
        <outerBoundaryIs>
          <LinearRing>
            <coordinates>
              3.5073510,47.4002346
              3.5074010,47.4002021
              3.5074359,47.4002262
              3.5073964,47.4002521
              3.5073510,47.4002346
            </coordinates>
          </LinearRing>
        </outerBoundaryIs>
      </Polygon>
      <Polygon>
        <altitudeMode>clampToGround</altitudeMode>
        <extrude>1</extrude>
        <tessellate>1</tessellate>
        <outerBoundaryIs>
          <LinearRing>
            <coordinates>
              3.5074010,47.4002021
              3.5074780,47.4001804
              3.5075106,47.4001919
              3.5074359,47.4002262
              3.5074010,47.4002021
            </coordinates>
          </LinearRing>
        </outerBoundaryIs>
      </Polygon>
      <Polygon>
        <altitudeMode>clampToGround</altitudeMode>
        <extrude>1</extrude>
        <tessellate>1</tessellate>
        <outerBoundaryIs>
          <LinearRing>
            <coordinates>
              3.5074780,47.4001804
              3.5074464,47.4000256
              3.5074882,47.4000394
              3.5075106,47.4001919
              3.5074780,47.4001804
            </coordinates>
          </LinearRing>
        </outerBoundaryIs>
      </Polygon>
      <Polygon>
        <altitudeMode>clampToGround</altitudeMode>
        <extrude>1</extrude>
        <tessellate>1</tessellate>
        <outerBoundaryIs>
          <LinearRing>
            <coordinates>
              3.5074464,47.4000256
              3.5075221,47.3999845
              3.5075286,47.4000163
              3.5074882,47.4000394
              3.5074464,47.4000256
            </coordinates>
          </LinearRing>
        </outerBoundaryIs>
      </Polygon>
      <Polygon>
        <altitudeMode>clampToGround</altitudeMode>
        <extrude>1</extrude>
        <tessellate>1</tessellate>
        <outerBoundaryIs>
          <LinearRing>
            <coordinates>
              3.5075221,47.3999845
              3.5076802,47.4000047
              3.5076876,47.4000246
              3.5075286,47.4000163
              3.5075221,47.3999845
            </coordinates>
          </LinearRing>
        </outerBoundaryIs>
      </Polygon>
      <Polygon>
        <altitudeMode>clampToGround</altitudeMode>
        <extrude>1</extrude>
        <tessellate>1</tessellate>
        <outerBoundaryIs>
          <LinearRing>
            <coordinates>
              3.5076802,47.4000047
              3.5077443,47.3999694
              3.5077843,47.3999955
              3.5076876,47.4000246
              3.5076802,47.4000047
            </coordinates>
          </LinearRing>
        </outerBoundaryIs>
      </Polygon>
      <Polygon>
        <altitudeMode>clampToGround</altitudeMode>
        <extrude>1</extrude>
        <tessellate>1</tessellate>
        <outerBoundaryIs>
          <LinearRing>
            <coordinates>
              3.5077443,47.3999694
              3.5077792,47.3999614
              3.5077928,47.3999671
              3.5077843,47.3999955
              3.5077443,47.3999694
            </coordinates>
          </LinearRing>
        </outerBoundaryIs>
      </Polygon>
      <Polygon>
        <altitudeMode>clampToGround</altitudeMode>
        <extrude>1</extrude>
        <tessellate>1</tessellate>
        <outerBoundaryIs>
          <LinearRing>
            <coordinates>
              3.5077792,47.3999614
              3.5078010,47.3999188
              3.5078202,47.3999201
              3.5077928,47.3999671
              3.5077792,47.3999614
            </coordinates>
          </LinearRing>
        </outerBoundaryIs>
      </Polygon>
      <Polygon>
        <altitudeMode>clampToGround</altitudeMode>
        <extrude>1</extrude>
        <tessellate>1</tessellate>
        <outerBoundaryIs>
          <LinearRing>
            <coordinates>
              3.5078010,47.3999188
              3.5077877,47.3998804
              3.5078247,47.3998812
              3.5078202,47.3999201
              3.5078010,47.3999188
            </coordinates>
          </LinearRing>
        </outerBoundaryIs>
      </Polygon>
      <Polygon>
        <altitudeMode>clampToGround</altitudeMode>
        <extrude>1</extrude>
        <tessellate>1</tessellate>
        <outerBoundaryIs>
          <LinearRing>
            <coordinates>
              3.5077877,47.3998804
              3.5078239,47.3997660
              3.5078560,47.3998001
              3.5078247,47.3998812
              3.5077877,47.3998804
            </coordinates>
          </LinearRing>
        </outerBoundaryIs>
      </Polygon>
      <Polygon>
        <altitudeMode>clampToGround</altitudeMode>
        <extrude>1</extrude>
        <tessellate>1</tessellate>
        <outerBoundaryIs>
          <LinearRing>
            <coordinates>
              3.5078239,47.3997660
              3.5079069,47.3997902
              3.5078937,47.3998078
              3.5078560,47.3998001
              3.5078239,47.3997660
            </coordinates>
          </LinearRing>
        </outerBoundaryIs>
      </Polygon>
      <Polygon>
        <altitudeMode>clampToGround</altitudeMode>
        <extrude>1</extrude>
        <tessellate>1</tessellate>
        <outerBoundaryIs>
          <LinearRing>
            <coordinates>
              3.5079069,47.3997902
              3.5079682,47.3998265
              3.5079650,47.3998449
              3.5078937,47.3998078
              3.5079069,47.3997902
            </coordinates>
          </LinearRing>
        </outerBoundaryIs>
      </Polygon>
      <Polygon>
        <altitudeMode>clampToGround</altitudeMode>
        <extrude>1</extrude>
        <tessellate>1</tessellate>
        <outerBoundaryIs>
          <LinearRing>
            <coordinates>
              3.5079682,47.3998265
              3.5081086,47.3997543
              3.5081048,47.3998014
              3.5079650,47.3998449
              3.5079682,47.3998265
            </coordinates>
          </LinearRing>
        </outerBoundaryIs>
      </Polygon>
      <Polygon>
        <altitudeMode>clampToGround</altitudeMode>
        <extrude>1</extrude>
        <tessellate>1</tessellate>
        <outerBoundaryIs>
          <LinearRing>
            <coordinates>
              3.5081086,47.3997543
              3.5082480,47.3998256
              3.5082364,47.3998527
              3.5081048,47.3998014
              3.5081086,47.3997543
            </coordinates>
          </LinearRing>
        </outerBoundaryIs>
      </Polygon>
      <Polygon>
        <altitudeMode>clampToGround</altitudeMode>
        <extrude>1</extrude>
        <tessellate>1</tessellate>
        <outerBoundaryIs>
          <LinearRing>
            <coordinates>
              3.5082480,47.3998256
              3.5084294,47.3998242
              3.5084254,47.3998594
              3.5082364,47.3998527
              3.5082480,47.3998256
            </coordinates>
          </LinearRing>
        </outerBoundaryIs>
      </Polygon>
      <Polygon>
        <altitudeMode>clampToGround</altitudeMode>
        <extrude>1</extrude>
        <tessellate>1</tessellate>
        <outerBoundaryIs>
          <LinearRing>
            <coordinates>
              3.5084294,47.3998242
              3.5084987,47.3998254
              3.5085279,47.3998566
              3.5084254,47.3998594
              3.5084294,47.3998242
            </coordinates>
          </LinearRing>
        </outerBoundaryIs>
      </Polygon>
      <Polygon>
        <altitudeMode>clampToGround</altitudeMode>
        <extrude>1</extrude>
        <tessellate>1</tessellate>
        <outerBoundaryIs>
          <LinearRing>
            <coordinates>
              3.5084987,47.3998254
              3.5085510,47.3996957
              3.5085904,47.3997264
              3.5085279,47.3998566
              3.5084987,47.3998254
            </coordinates>
          </LinearRing>
        </outerBoundaryIs>
      </Polygon>
      <Polygon>
        <altitudeMode>clampToGround</altitudeMode>
        <extrude>1</extrude>
        <tessellate>1</tessellate>
        <outerBoundaryIs>
          <LinearRing>
            <coordinates>
              3.5085510,47.3996957
              3.5087353,47.3996951
              3.5087454,47.3997221
              3.5085904,47.3997264
              3.5085510,47.3996957
            </coordinates>
          </LinearRing>
        </outerBoundaryIs>
      </Polygon>
      <Polygon>
        <altitudeMode>clampToGround</altitudeMode>
        <extrude>1</extrude>
        <tessellate>1</tessellate>
        <outerBoundaryIs>
          <LinearRing>
            <coordinates>
              3.5087353,47.3996951
              3.5088703,47.3996250
              3.5089348,47.3996446
              3.5087454,47.3997221
              3.5087353,47.3996951
            </coordinates>
          </LinearRing>
        </outerBoundaryIs>
      </Polygon>
      <Polygon>
        <altitudeMode>clampToGround</altitudeMode>
        <extrude>1</extrude>
        <tessellate>1</tessellate>
        <outerBoundaryIs>
          <LinearRing>
            <coordinates>
              3.5088703,47.3996250
              3.5088758,47.3995689
              3.5089048,47.3995733
              3.5089348,47.3996446
              3.5088703,47.3996250
            </coordinates>
          </LinearRing>
        </outerBoundaryIs>
      </Polygon>
      <Polygon>
        <altitudeMode>clampToGround</altitudeMode>
        <extrude>1</extrude>
        <tessellate>1</tessellate>
        <outerBoundaryIs>
          <LinearRing>
            <coordinates>
              3.5088758,47.3995689
              3.5089880,47.3994782
              3.5089951,47.3995247
              3.5089048,47.3995733
              3.5088758,47.3995689
            </coordinates>
          </LinearRing>
        </outerBoundaryIs>
      </Polygon>
      <Polygon>
        <altitudeMode>clampToGround</altitudeMode>
        <extrude>1</extrude>
        <tessellate>1</tessellate>
        <outerBoundaryIs>
          <LinearRing>
            <coordinates>
              3.5089880,47.3994782
              3.5091276,47.3995322
              3.5091136,47.3995528
              3.5089951,47.3995247
              3.5089880,47.3994782
            </coordinates>
          </LinearRing>
        </outerBoundaryIs>
      </Polygon>
      <Polygon>
        <altitudeMode>clampToGround</altitudeMode>
        <extrude>1</extrude>
        <tessellate>1</tessellate>
        <outerBoundaryIs>
          <LinearRing>
            <coordinates>
              3.5091276,47.3995322
              3.5093822,47.3995546
              3.5093641,47.3995851
              3.5091136,47.3995528
              3.5091276,47.3995322
            </coordinates>
          </LinearRing>
        </outerBoundaryIs>
      </Polygon>
      <Polygon>
        <altitudeMode>clampToGround</altitudeMode>
        <extrude>1</extrude>
        <tessellate>1</tessellate>
        <outerBoundaryIs>
          <LinearRing>
            <coordinates>
              3.5093822,47.3995546
              3.5094820,47.3996093
              3.5094702,47.3996350
              3.5093641,47.3995851
              3.5093822,47.3995546
            </coordinates>
          </LinearRing>
        </outerBoundaryIs>
      </Polygon>
      <Polygon>
        <altitudeMode>clampToGround</altitudeMode>
        <extrude>1</extrude>
        <tessellate>1</tessellate>
        <outerBoundaryIs>
          <LinearRing>
            <coordinates>
              3.5094820,47.3996093
              3.5097014,47.3996269
              3.5096956,47.3996469
              3.5094702,47.3996350
              3.5094820,47.3996093
            </coordinates>
          </LinearRing>
        </outerBoundaryIs>
      </Polygon>
      <Polygon>
        <altitudeMode>clampToGround</altitudeMode>
        <extrude>1</extrude>
        <tessellate>1</tessellate>
        <outerBoundaryIs>
          <LinearRing>
            <coordinates>
              3.5097014,47.3996269
              3.5099285,47.3996856
              3.5099023,47.3996993
              3.5096956,47.3996469
              3.5097014,47.3996269
            </coordinates>
          </LinearRing>
        </outerBoundaryIs>
      </Polygon>
      <Polygon>
        <altitudeMode>clampToGround</altitudeMode>
        <extrude>1</extrude>
        <tessellate>1</tessellate>
        <outerBoundaryIs>
          <LinearRing>
            <coordinates>
              3.5099285,47.3996856
              3.5099617,47.3997589
              3.5099331,47.3997825
              3.5099023,47.3996993
              3.5099285,47.3996856
            </coordinates>
          </LinearRing>
        </outerBoundaryIs>
      </Polygon>
      <Polygon>
        <altitudeMode>clampToGround</altitudeMode>
        <extrude>1</extrude>
        <tessellate>1</tessellate>
        <outerBoundaryIs>
          <LinearRing>
            <coordinates>
              3.5099617,47.3997589
              3.5101664,47.3997497
              3.5101848,47.3997685
              3.5099331,47.3997825
              3.5099617,47.3997589
            </coordinates>
          </LinearRing>
        </outerBoundaryIs>
      </Polygon>
      <Polygon>
        <altitudeMode>clampToGround</altitudeMode>
        <extrude>1</extrude>
        <tessellate>1</tessellate>
        <outerBoundaryIs>
          <LinearRing>
            <coordinates>
              3.5101664,47.3997497
              3.5102155,47.3997239
              3.5102155,47.3997239
              3.5101848,47.3997685
              3.5101664,47.3997497
            </coordinates>
          </LinearRing>
        </outerBoundaryIs>
      </Polygon>
      <Polygon>
        <altitudeMode>clampToGround</altitudeMode>
        <extrude>1</extrude>
        <tessellate>1</tessellate>
        <outerBoundaryIs>
          <LinearRing>
            <coordinates>
              3.5102155,47.3997239
              3.5102159,47.3997220
              3.5102075,47.3997604
              3.5102155,47.3997239
              3.5102155,47.3997239
            </coordinates>
          </LinearRing>
        </outerBoundaryIs>
      </Polygon>
      <Polygon>
        <altitudeMode>clampToGround</altitudeMode>
        <extrude>1</extrude>
        <tessellate>1</tessellate>
        <outerBoundaryIs>
          <LinearRing>
            <coordinates>
              3.5102159,47.3997220
              3.5103665,47.3997259
              3.5103800,47.3997559
              3.5102075,47.3997604
              3.5102159,47.3997220
            </coordinates>
          </LinearRing>
        </outerBoundaryIs>
      </Polygon>
      <Polygon>
        <altitudeMode>clampToGround</altitudeMode>
        <extrude>1</extrude>
        <tessellate>1</tessellate>
        <outerBoundaryIs>
          <LinearRing>
            <coordinates>
              3.5103665,47.3997259
              3.5104813,47.3996691
              3.5104969,47.3997025
              3.5103800,47.3997559
              3.5103665,47.3997259
            </coordinates>
          </LinearRing>
        </outerBoundaryIs>
      </Polygon>
      <Polygon>
        <altitudeMode>clampToGround</altitudeMode>
        <extrude>1</extrude>
        <tessellate>1</tessellate>
        <outerBoundaryIs>
          <LinearRing>
            <coordinates>
              3.5104813,47.3996691
              3.5106357,47.3996538
              3.5106428,47.3996876
              3.5104969,47.3997025
              3.5104813,47.3996691
            </coordinates>
          </LinearRing>
        </outerBoundaryIs>
      </Polygon>
      <Polygon>
        <altitudeMode>clampToGround</altitudeMode>
        <extrude>1</extrude>
        <tessellate>1</tessellate>
        <outerBoundaryIs>
          <LinearRing>
            <coordinates>
              3.5106357,47.3996538
              3.5108842,47.3995869
              3.5108940,47.3996166
              3.5106428,47.3996876
              3.5106357,47.3996538
            </coordinates>
          </LinearRing>
        </outerBoundaryIs>
      </Polygon>
      <Polygon>
        <altitudeMode>clampToGround</altitudeMode>
        <extrude>1</extrude>
        <tessellate>1</tessellate>
        <outerBoundaryIs>
          <LinearRing>
            <coordinates>
              3.5108842,47.3995869
              3.5110768,47.3996080
              3.5110757,47.3996222
              3.5108940,47.3996166
              3.5108842,47.3995869
            </coordinates>
          </LinearRing>
        </outerBoundaryIs>
      </Polygon>
      <Polygon>
        <altitudeMode>clampToGround</altitudeMode>
        <extrude>1</extrude>
        <tessellate>1</tessellate>
        <outerBoundaryIs>
          <LinearRing>
            <coordinates>
              3.5110768,47.3996080
              3.5112169,47.3995995
              3.5112248,47.3996258
              3.5110757,47.3996222
              3.5110768,47.3996080
            </coordinates>
          </LinearRing>
        </outerBoundaryIs>
      </Polygon>
      <Polygon>
        <altitudeMode>clampToGround</altitudeMode>
        <extrude>1</extrude>
        <tessellate>1</tessellate>
        <outerBoundaryIs>
          <LinearRing>
            <coordinates>
              3.5112169,47.3995995
              3.5112455,47.3995259
              3.5113746,47.3995635
              3.5112248,47.3996258
              3.5112169,47.3995995
            </coordinates>
          </LinearRing>
        </outerBoundaryIs>
      </Polygon>
      <Polygon>
        <altitudeMode>clampToGround</altitudeMode>
        <extrude>1</extrude>
        <tessellate>1</tessellate>
        <outerBoundaryIs>
          <LinearRing>
            <coordinates>
              3.5113243,47.3994311
              3.5113448,47.3993543
              3.5113965,47.3993628
              3.5113735,47.3994356
              3.5113243,47.3994311
            </coordinates>
          </LinearRing>
        </outerBoundaryIs>
      </Polygon>
      <Polygon>
        <altitudeMode>clampToGround</altitudeMode>
        <extrude>1</extrude>
        <tessellate>1</tessellate>
        <outerBoundaryIs>
          <LinearRing>
            <coordinates>
              3.5113448,47.3993543
              3.5113817,47.3992473
              3.5113817,47.3992473
              3.5113965,47.3993628
              3.5113448,47.3993543
            </coordinates>
          </LinearRing>
        </outerBoundaryIs>
      </Polygon>
      <Polygon>
        <altitudeMode>clampToGround</altitudeMode>
        <extrude>1</extrude>
        <tessellate>1</tessellate>
        <outerBoundaryIs>
          <LinearRing>
            <coordinates>
              3.5113817,47.3992473
              3.5113786,47.3992466
              3.5114551,47.3992637
              3.5113817,47.3992473
              3.5113817,47.3992473
            </coordinates>
          </LinearRing>
        </outerBoundaryIs>
      </Polygon>
      <Polygon>
        <altitudeMode>clampToGround</altitudeMode>
        <extrude>1</extrude>
        <tessellate>1</tessellate>
        <outerBoundaryIs>
          <LinearRing>
            <coordinates>
              3.5113786,47.3992466
              3.5114096,47.3991830
              3.5114305,47.3992037
              3.5114551,47.3992637
              3.5113786,47.3992466
            </coordinates>
          </LinearRing>
        </outerBoundaryIs>
      </Polygon>
      <Polygon>
        <altitudeMode>clampToGround</altitudeMode>
        <extrude>1</extrude>
        <tessellate>1</tessellate>
        <outerBoundaryIs>
          <LinearRing>
            <coordinates>
              3.5114096,47.3991830
              3.5114959,47.3991829
              3.5114988,47.3991906
              3.5114305,47.3992037
              3.5114096,47.3991830
            </coordinates>
          </LinearRing>
        </outerBoundaryIs>
      </Polygon>
      <Polygon>
        <altitudeMode>clampToGround</altitudeMode>
        <extrude>1</extrude>
        <tessellate>1</tessellate>
        <outerBoundaryIs>
          <LinearRing>
            <coordinates>
              3.5114959,47.3991829
              3.5115504,47.3991598
              3.5115621,47.3991656
              3.5114988,47.3991906
              3.5114959,47.3991829
            </coordinates>
          </LinearRing>
        </outerBoundaryIs>
      </Polygon>
      <Polygon>
        <altitudeMode>clampToGround</altitudeMode>
        <extrude>1</extrude>
        <tessellate>1</tessellate>
        <outerBoundaryIs>
          <LinearRing>
            <coordinates>
              3.5115504,47.3991598
              3.5115539,47.3991049
              3.5115847,47.3991064
              3.5115621,47.3991656
              3.5115504,47.3991598
            </coordinates>
          </LinearRing>
        </outerBoundaryIs>
      </Polygon>
      <Polygon>
        <altitudeMode>clampToGround</altitudeMode>
        <extrude>1</extrude>
        <tessellate>1</tessellate>
        <outerBoundaryIs>
          <LinearRing>
            <coordinates>
              3.5115539,47.3991049
              3.5115446,47.3990568
              3.5116017,47.3990396
              3.5115847,47.3991064
              3.5115539,47.3991049
            </coordinates>
          </LinearRing>
        </outerBoundaryIs>
      </Polygon>
      <Polygon>
        <altitudeMode>clampToGround</altitudeMode>
        <extrude>1</extrude>
        <tessellate>1</tessellate>
        <outerBoundaryIs>
          <LinearRing>
            <coordinates>
              3.5115446,47.3990568
              3.5114929,47.3989945
              3.5115610,47.3989868
              3.5116017,47.3990396
              3.5115446,47.3990568
            </coordinates>
          </LinearRing>
        </outerBoundaryIs>
      </Polygon>
      <Polygon>
        <altitudeMode>clampToGround</altitudeMode>
        <extrude>1</extrude>
        <tessellate>1</tessellate>
        <outerBoundaryIs>
          <LinearRing>
            <coordinates>
              3.5114929,47.3989945
              3.5115391,47.3988597
              3.5115864,47.3988601
              3.5115610,47.3989868
              3.5114929,47.3989945
            </coordinates>
          </LinearRing>
        </outerBoundaryIs>
      </Polygon>
      <Polygon>
        <altitudeMode>clampToGround</altitudeMode>
        <extrude>1</extrude>
        <tessellate>1</tessellate>
        <outerBoundaryIs>
          <LinearRing>
            <coordinates>
              3.5115391,47.3988597
              3.5115104,47.3987564
              3.5115467,47.3987578
              3.5115864,47.3988601
              3.5115391,47.3988597
            </coordinates>
          </LinearRing>
        </outerBoundaryIs>
      </Polygon>
      <Polygon>
        <altitudeMode>clampToGround</altitudeMode>
        <extrude>1</extrude>
        <tessellate>1</tessellate>
        <outerBoundaryIs>
          <LinearRing>
            <coordinates>
              3.5115104,47.3987564
              3.5115671,47.3986610
              3.5115987,47.3986668
              3.5115467,47.3987578
              3.5115104,47.3987564
            </coordinates>
          </LinearRing>
        </outerBoundaryIs>
      </Polygon>
      <Polygon>
        <altitudeMode>clampToGround</altitudeMode>
        <extrude>1</extrude>
        <tessellate>1</tessellate>
        <outerBoundaryIs>
          <LinearRing>
            <coordinates>
              3.5115671,47.3986610
              3.5115792,47.3986184
              3.5116182,47.3986324
              3.5115987,47.3986668
              3.5115671,47.3986610
            </coordinates>
          </LinearRing>
        </outerBoundaryIs>
      </Polygon>
      <Polygon>
        <altitudeMode>clampToGround</altitudeMode>
        <extrude>1</extrude>
        <tessellate>1</tessellate>
        <outerBoundaryIs>
          <LinearRing>
            <coordinates>
              3.5115792,47.3986184
              3.5116939,47.3985605
              3.5117158,47.3985697
              3.5116182,47.3986324
              3.5115792,47.3986184
            </coordinates>
          </LinearRing>
        </outerBoundaryIs>
      </Polygon>
      <Polygon>
        <altitudeMode>clampToGround</altitudeMode>
        <extrude>1</extrude>
        <tessellate>1</tessellate>
        <outerBoundaryIs>
          <LinearRing>
            <coordinates>
              3.5116939,47.3985605
              3.5117199,47.3985116
              3.5117463,47.3985137
              3.5117158,47.3985697
              3.5116939,47.3985605
            </coordinates>
          </LinearRing>
        </outerBoundaryIs>
      </Polygon>
      <Polygon>
        <altitudeMode>clampToGround</altitudeMode>
        <extrude>1</extrude>
        <tessellate>1</tessellate>
        <outerBoundaryIs>
          <LinearRing>
            <coordinates>
              3.5117199,47.3985116
              3.5117244,47.3983667
              3.5117484,47.3983658
              3.5117463,47.3985137
              3.5117199,47.3985116
            </coordinates>
          </LinearRing>
        </outerBoundaryIs>
      </Polygon>
      <Polygon>
        <altitudeMode>clampToGround</altitudeMode>
        <extrude>1</extrude>
        <tessellate>1</tessellate>
        <outerBoundaryIs>
          <LinearRing>
            <coordinates>
              3.5117244,47.3983667
              3.5117037,47.3982533
              3.5117438,47.3982512
              3.5117484,47.3983658
              3.5117244,47.3983667
            </coordinates>
          </LinearRing>
        </outerBoundaryIs>
      </Polygon>
      <Polygon>
        <altitudeMode>clampToGround</altitudeMode>
        <extrude>1</extrude>
        <tessellate>1</tessellate>
        <outerBoundaryIs>
          <LinearRing>
            <coordinates>
              3.5117037,47.3982533
              3.5117182,47.3980979
              3.5117475,47.3981130
              3.5117438,47.3982512
              3.5117037,47.3982533
            </coordinates>
          </LinearRing>
        </outerBoundaryIs>
      </Polygon>
      <Polygon>
        <altitudeMode>clampToGround</altitudeMode>
        <extrude>1</extrude>
        <tessellate>1</tessellate>
        <outerBoundaryIs>
          <LinearRing>
            <coordinates>
              3.5117182,47.3980979
              3.5118079,47.3980753
              3.5117927,47.3981054
              3.5117475,47.3981130
              3.5117182,47.3980979
            </coordinates>
          </LinearRing>
        </outerBoundaryIs>
      </Polygon>
      <Polygon>
        <altitudeMode>clampToGround</altitudeMode>
        <extrude>1</extrude>
        <tessellate>1</tessellate>
        <outerBoundaryIs>
          <LinearRing>
            <coordinates>
              3.5118079,47.3980753
              3.5118947,47.3981557
              3.5118720,47.3981838
              3.5117927,47.3981054
              3.5118079,47.3980753
            </coordinates>
          </LinearRing>
        </outerBoundaryIs>
      </Polygon>
      <Polygon>
        <altitudeMode>clampToGround</altitudeMode>
        <extrude>1</extrude>
        <tessellate>1</tessellate>
        <outerBoundaryIs>
          <LinearRing>
            <coordinates>
              3.5118947,47.3981557
              3.5120218,47.3981576
              3.5120395,47.3981703
              3.5118720,47.3981838
              3.5118947,47.3981557
            </coordinates>
          </LinearRing>
        </outerBoundaryIs>
      </Polygon>
      <Polygon>
        <altitudeMode>clampToGround</altitudeMode>
        <extrude>1</extrude>
        <tessellate>1</tessellate>
        <outerBoundaryIs>
          <LinearRing>
            <coordinates>
              3.5120218,47.3981576
              3.5120323,47.3980482
              3.5120699,47.3980524
              3.5120395,47.3981703
              3.5120218,47.3981576
            </coordinates>
          </LinearRing>
        </outerBoundaryIs>
      </Polygon>
      <Polygon>
        <altitudeMode>clampToGround</altitudeMode>
        <extrude>1</extrude>
        <tessellate>1</tessellate>
        <outerBoundaryIs>
          <LinearRing>
            <coordinates>
              3.5120323,47.3980482
              3.5120821,47.3979283
              3.5121025,47.3979314
              3.5120699,47.3980524
              3.5120323,47.3980482
            </coordinates>
          </LinearRing>
        </outerBoundaryIs>
      </Polygon>
      <Polygon>
        <altitudeMode>clampToGround</altitudeMode>
        <extrude>1</extrude>
        <tessellate>1</tessellate>
        <outerBoundaryIs>
          <LinearRing>
            <coordinates>
              3.5120821,47.3979283
              3.5120595,47.3978222
              3.5121209,47.3978146
              3.5121025,47.3979314
              3.5120821,47.3979283
            </coordinates>
          </LinearRing>
        </outerBoundaryIs>
      </Polygon>
      <Polygon>
        <altitudeMode>clampToGround</altitudeMode>
        <extrude>1</extrude>
        <tessellate>1</tessellate>
        <outerBoundaryIs>
          <LinearRing>
            <coordinates>
              3.5120595,47.3978222
              3.5120463,47.3977330
              3.5120716,47.3977316
              3.5121209,47.3978146
              3.5120595,47.3978222
            </coordinates>
          </LinearRing>
        </outerBoundaryIs>
      </Polygon>
      <Polygon>
        <altitudeMode>clampToGround</altitudeMode>
        <extrude>1</extrude>
        <tessellate>1</tessellate>
        <outerBoundaryIs>
          <LinearRing>
            <coordinates>
              3.5120463,47.3977330
              3.5121030,47.3976145
              3.5121345,47.3976221
              3.5120716,47.3977316
              3.5120463,47.3977330
            </coordinates>
          </LinearRing>
        </outerBoundaryIs>
      </Polygon>
      <Polygon>
        <altitudeMode>clampToGround</altitudeMode>
        <extrude>1</extrude>
        <tessellate>1</tessellate>
        <outerBoundaryIs>
          <LinearRing>
            <coordinates>
              3.5121030,47.3976145
              3.5121436,47.3975323
              3.5121730,47.3975532
              3.5121345,47.3976221
              3.5121030,47.3976145
            </coordinates>
          </LinearRing>
        </outerBoundaryIs>
      </Polygon>
      <Polygon>
        <altitudeMode>clampToGround</altitudeMode>
        <extrude>1</extrude>
        <tessellate>1</tessellate>
        <outerBoundaryIs>
          <LinearRing>
            <coordinates>
              3.5121436,47.3975323
              3.5121567,47.3975171
              3.5121875,47.3975332
              3.5121730,47.3975532
              3.5121436,47.3975323
            </coordinates>
          </LinearRing>
        </outerBoundaryIs>
      </Polygon>
      <Polygon>
        <altitudeMode>clampToGround</altitudeMode>
        <extrude>1</extrude>
        <tessellate>1</tessellate>
        <outerBoundaryIs>
          <LinearRing>
            <coordinates>
              3.5121567,47.3975171
              3.5121740,47.3974516
              3.5122544,47.3974529
              3.5121875,47.3975332
              3.5121567,47.3975171
            </coordinates>
          </LinearRing>
        </outerBoundaryIs>
      </Polygon>
      <Polygon>
        <altitudeMode>clampToGround</altitudeMode>
        <extrude>1</extrude>
        <tessellate>1</tessellate>
        <outerBoundaryIs>
          <LinearRing>
            <coordinates>
              3.5112455,47.3995259
              3.5113243,47.3994311
              3.5113735,47.3994356
              3.5113746,47.3995635
              3.5112455,47.3995259
            </coordinates>
          </LinearRing>
        </outerBoundaryIs>
      </Polygon>
    </MultiGeometry>
  </Placemark>
</Document>
</kml>
